*******************************************************************************
Ephemeris / WWW_USER Mon Mar 24 11:48:14 2025 Pasadena, USA      / Horizons    
*******************************************************************************
Target body name: (2018 YU2)                      {source: JPL#5}
Center body name: Earth (399)                     {source: DE441}
Center-site name: Gemini South Obs., Cerro Pachon
*******************************************************************************
Start time      : A.D. 2018-Aug-25 22:32:00.0000 UT      
Stop  time      : A.D. 2018-Aug-26 10:57:00.0000 UT      
Step-size       : 1 minutes
*******************************************************************************
Target pole/equ : undefined
Target radii    : undefined                                                    
Center geodetic : 289.2634, -30.2406227, 2.71233  {E-lon(deg),Lat(deg),Alt(km)}
Center cylindric: 289.2634,5517.21435,-3194.81213 {E-lon(deg),Dxy(km),Dz(km)}
Center pole/equ : ITRF93                          {East-longitude positive}
Center radii    : 6378.137, 6378.137, 6356.752 km {Equator_a, b, pole_c}       
Target primary  : Sun
Vis. interferer : MOON (R_eq= 1737.400) km        {source: DE441}
Rel. light bend : Sun                             {source: DE441}
Rel. lght bnd GM: 1.3271E+11 km^3/s^2                                          
Small-body perts: Yes                             {source: SB441-N16}
Atmos refraction: NO (AIRLESS)
RA format       : HMS
Time format     : CAL 
Calendar mode   : Mixed Julian/Gregorian
RTS-only print  : NO       
EOP file        : eop.250321.p250617                                           
EOP coverage    : DATA-BASED 1962-JAN-20 TO 2025-MAR-21. PREDICTS-> 2025-JUN-16
Units conversion: 1 au= 149597870.700 km, c= 299792.458 km/s, 1 day= 86400.0 s 
Table cut-offs 1: Elevation (-90.0deg=NO ),Airmass (>38.000=NO), Daylight (YES)
Table cut-offs 2: Solar elongation (  0.0,180.0=NO ),Local Hour Angle( 0.0=NO )
Table cut-offs 3: RA/DEC angular rate (     0.0=NO )                           
*******************************************************************************
Initial IAU76/J2000 heliocentric ecliptic osculating elements (au, days, deg.):
  EPOCH=  2458477.5 ! 2018-Dec-25.00 (TDB)         Residual RMS= .22887        
   EC= .1533598773405833   QR= .920984914841031    TP= 2458549.1486254167      
   OM= 279.4515303175068   W=  253.4059234937716   IN= 2.850769624588425       
  Equivalent ICRF heliocentric cartesian coordinates (au, au/d):
   X=-6.842297687009524E-02  Y= 9.429126817220428E-01  Z= 4.143187104036840E-01
  VX=-1.695115058702848E-02 VY=-2.997207899955317E-03 VZ=-2.239432528215744E-03
Asteroid physical parameters (km, seconds, rotational period in hours):        
   GM= n.a.                RAD= n.a.               ROTPER= n.a.                
   H= 26.5                 G= .150                 B-V= n.a.                   
                           ALBEDO= n.a.            STYP= n.a.                  
*******************************************************************************
 Date__(UT)__HR:MN     R.A._________(ICRF)_________DEC
******************************************************
$$SOE
 2018-Aug-26 04:41  m  03 27 48.227579 +24 40 43.45273
 2018-Aug-26 04:42  m  03 27 48.330280 +24 40 43.98191
 2018-Aug-26 04:43  m  03 27 48.432965 +24 40 44.51107
 2018-Aug-26 04:44  m  03 27 48.535633 +24 40 45.04021
 2018-Aug-26 04:45  r  03 27 48.638284 +24 40 45.56933
 2018-Aug-26 04:46  m  03 27 48.740919 +24 40 46.09842
 2018-Aug-26 04:47  m  03 27 48.843538 +24 40 46.62748
 2018-Aug-26 04:48  m  03 27 48.946140 +24 40 47.15652
 2018-Aug-26 04:49  m  03 27 49.048725 +24 40 47.68554
 2018-Aug-26 04:50  m  03 27 49.151294 +24 40 48.21452
 2018-Aug-26 04:51  m  03 27 49.253847 +24 40 48.74348
 2018-Aug-26 04:52  m  03 27 49.356383 +24 40 49.27242
 2018-Aug-26 04:53  m  03 27 49.458902 +24 40 49.80132
 2018-Aug-26 04:54  m  03 27 49.561405 +24 40 50.33020
 2018-Aug-26 04:55  m  03 27 49.663892 +24 40 50.85905
 2018-Aug-26 04:56  m  03 27 49.766363 +24 40 51.38787
 2018-Aug-26 04:57  m  03 27 49.868817 +24 40 51.91667
 2018-Aug-26 04:58  m  03 27 49.971254 +24 40 52.44543
 2018-Aug-26 04:59  m  03 27 50.073676 +24 40 52.97416
 2018-Aug-26 05:00  m  03 27 50.176081 +24 40 53.50286
 2018-Aug-26 05:01  m  03 27 50.278469 +24 40 54.03153
 2018-Aug-26 05:02  m  03 27 50.380842 +24 40 54.56017
 2018-Aug-26 05:03  m  03 27 50.483198 +24 40 55.08878
 2018-Aug-26 05:04  m  03 27 50.585538 +24 40 55.61736
 2018-Aug-26 05:05  m  03 27 50.687862 +24 40 56.14590
 2018-Aug-26 05:06  m  03 27 50.790170 +24 40 56.67442
 2018-Aug-26 05:07  m  03 27 50.892461 +24 40 57.20289
 2018-Aug-26 05:08  m  03 27 50.994737 +24 40 57.73134
 2018-Aug-26 05:09  m  03 27 51.096996 +24 40 58.25975
 2018-Aug-26 05:10  m  03 27 51.199239 +24 40 58.78812
 2018-Aug-26 05:11  m  03 27 51.301466 +24 40 59.31647
 2018-Aug-26 05:12  m  03 27 51.403678 +24 40 59.84477
 2018-Aug-26 05:13  m  03 27 51.505873 +24 41 00.37304
 2018-Aug-26 05:14  m  03 27 51.608052 +24 41 00.90128
 2018-Aug-26 05:15  m  03 27 51.710215 +24 41 01.42948
 2018-Aug-26 05:16  m  03 27 51.812362 +24 41 01.95764
 2018-Aug-26 05:17  m  03 27 51.914494 +24 41 02.48576
 2018-Aug-26 05:18  m  03 27 52.016609 +24 41 03.01385
 2018-Aug-26 05:19  m  03 27 52.118709 +24 41 03.54190
 2018-Aug-26 05:20  m  03 27 52.220792 +24 41 04.06991
 2018-Aug-26 05:21  m  03 27 52.322860 +24 41 04.59788
 2018-Aug-26 05:22  m  03 27 52.424912 +24 41 05.12581
 2018-Aug-26 05:23  m  03 27 52.526949 +24 41 05.65370
 2018-Aug-26 05:24  m  03 27 52.628970 +24 41 06.18155
 2018-Aug-26 05:25  m  03 27 52.730975 +24 41 06.70937
 2018-Aug-26 05:26  m  03 27 52.832964 +24 41 07.23714
 2018-Aug-26 05:27  m  03 27 52.934938 +24 41 07.76487
 2018-Aug-26 05:28  m  03 27 53.036896 +24 41 08.29256
 2018-Aug-26 05:29  m  03 27 53.138838 +24 41 08.82020
 2018-Aug-26 05:30  m  03 27 53.240765 +24 41 09.34781
 2018-Aug-26 05:31  m  03 27 53.342676 +24 41 09.87537
 2018-Aug-26 05:32  m  03 27 53.444572 +24 41 10.40289
 2018-Aug-26 05:33  m  03 27 53.546453 +24 41 10.93036
 2018-Aug-26 05:34  m  03 27 53.648318 +24 41 11.45779
 2018-Aug-26 05:35  m  03 27 53.750167 +24 41 11.98518
 2018-Aug-26 05:36  m  03 27 53.852002 +24 41 12.51252
 2018-Aug-26 05:37  m  03 27 53.953821 +24 41 13.03982
 2018-Aug-26 05:38  m  03 27 54.055624 +24 41 13.56707
 2018-Aug-26 05:39  m  03 27 54.157413 +24 41 14.09428
 2018-Aug-26 05:40  m  03 27 54.259186 +24 41 14.62144
 2018-Aug-26 05:41  m  03 27 54.360944 +24 41 15.14855
 2018-Aug-26 05:42  m  03 27 54.462686 +24 41 15.67562
 2018-Aug-26 05:43  m  03 27 54.564414 +24 41 16.20264
 2018-Aug-26 05:44  m  03 27 54.666126 +24 41 16.72961
 2018-Aug-26 05:45  m  03 27 54.767824 +24 41 17.25653
 2018-Aug-26 05:46  m  03 27 54.869506 +24 41 17.78341
 2018-Aug-26 05:47  m  03 27 54.971173 +24 41 18.31024
 2018-Aug-26 05:48  m  03 27 55.072826 +24 41 18.83701
 2018-Aug-26 05:49  m  03 27 55.174463 +24 41 19.36374
 2018-Aug-26 05:50  m  03 27 55.276086 +24 41 19.89042
 2018-Aug-26 05:51  m  03 27 55.377693 +24 41 20.41704
 2018-Aug-26 05:52  m  03 27 55.479286 +24 41 20.94362
 2018-Aug-26 05:53  m  03 27 55.580864 +24 41 21.47015
 2018-Aug-26 05:54  m  03 27 55.682427 +24 41 21.99662
 2018-Aug-26 05:55  m  03 27 55.783976 +24 41 22.52304
 2018-Aug-26 05:56  m  03 27 55.885510 +24 41 23.04941
 2018-Aug-26 05:57  m  03 27 55.987029 +24 41 23.57573
 2018-Aug-26 05:58  m  03 27 56.088533 +24 41 24.10200
 2018-Aug-26 05:59  m  03 27 56.190023 +24 41 24.62821
 2018-Aug-26 06:00  m  03 27 56.291499 +24 41 25.15437
 2018-Aug-26 06:01  m  03 27 56.392960 +24 41 25.68047
 2018-Aug-26 06:02  m  03 27 56.494406 +24 41 26.20652
 2018-Aug-26 06:03  m  03 27 56.595838 +24 41 26.73251
 2018-Aug-26 06:04  m  03 27 56.697256 +24 41 27.25845
 2018-Aug-26 06:05  m  03 27 56.798659 +24 41 27.78434
 2018-Aug-26 06:06  m  03 27 56.900048 +24 41 28.31017
 2018-Aug-26 06:07  m  03 27 57.001423 +24 41 28.83594
 2018-Aug-26 06:08  m  03 27 57.102784 +24 41 29.36165
 2018-Aug-26 06:09  m  03 27 57.204130 +24 41 29.88731
 2018-Aug-26 06:10  m  03 27 57.305462 +24 41 30.41292
 2018-Aug-26 06:11  m  03 27 57.406781 +24 41 30.93846
 2018-Aug-26 06:12  m  03 27 57.508085 +24 41 31.46395
 2018-Aug-26 06:13  m  03 27 57.609375 +24 41 31.98937
 2018-Aug-26 06:14  m  03 27 57.710651 +24 41 32.51474
 2018-Aug-26 06:15  m  03 27 57.811913 +24 41 33.04005
 2018-Aug-26 06:16  m  03 27 57.913161 +24 41 33.56531
 2018-Aug-26 06:17  m  03 27 58.014396 +24 41 34.09050
 2018-Aug-26 06:18  m  03 27 58.115616 +24 41 34.61563
 2018-Aug-26 06:19  m  03 27 58.216823 +24 41 35.14070
 2018-Aug-26 06:20  m  03 27 58.318016 +24 41 35.66571
 2018-Aug-26 06:21  m  03 27 58.419196 +24 41 36.19066
 2018-Aug-26 06:22  m  03 27 58.520362 +24 41 36.71555
 2018-Aug-26 06:23  m  03 27 58.621514 +24 41 37.24038
 2018-Aug-26 06:24  m  03 27 58.722653 +24 41 37.76514
 2018-Aug-26 06:25  m  03 27 58.823778 +24 41 38.28984
 2018-Aug-26 06:26  m  03 27 58.924890 +24 41 38.81448
 2018-Aug-26 06:27  m  03 27 59.025988 +24 41 39.33906
 2018-Aug-26 06:28  m  03 27 59.127073 +24 41 39.86357
 2018-Aug-26 06:29  m  03 27 59.228145 +24 41 40.38802
 2018-Aug-26 06:30  m  03 27 59.329203 +24 41 40.91240
 2018-Aug-26 06:31  m  03 27 59.430248 +24 41 41.43672
 2018-Aug-26 06:32  m  03 27 59.531280 +24 41 41.96098
 2018-Aug-26 06:33  m  03 27 59.632299 +24 41 42.48517
 2018-Aug-26 06:34  m  03 27 59.733305 +24 41 43.00930
 2018-Aug-26 06:35  m  03 27 59.834298 +24 41 43.53336
 2018-Aug-26 06:36  m  03 27 59.935278 +24 41 44.05735
 2018-Aug-26 06:37  m  03 28 00.036244 +24 41 44.58128
 2018-Aug-26 06:38  m  03 28 00.137198 +24 41 45.10514
 2018-Aug-26 06:39  m  03 28 00.238139 +24 41 45.62893
 2018-Aug-26 06:40  m  03 28 00.339068 +24 41 46.15266
 2018-Aug-26 06:41  m  03 28 00.439983 +24 41 46.67632
 2018-Aug-26 06:42  m  03 28 00.540886 +24 41 47.19991
 2018-Aug-26 06:43  m  03 28 00.641776 +24 41 47.72343
